[{"OBJECT_NAME":"HAIYANG-2A","OBJECT_ID":"2011-043A","EPOCH":"2026-03-10T00:07:18.637248","MEAN_MOTION":13.78270863,"ECCENTRICITY":0.00014304,"INCLINATION":99.3421,"RA_OF_ASC_NODE":73.6029,"ARG_OF_PERICENTER":273.3888,"MEAN_ANOMALY":86.7099,"EPHEMERIS_TYPE":0,"CLASSIFICATION_TYPE":"U","NORAD_CAT_ID":37781,"ELEMENT_SET_NO":999,"REV_AT_EPOCH":73301,"BSTAR":-0.00021809434,"MEAN_MOTION_DOT":-2.64e-6,"MEAN_MOTION_DDOT":0},{"OBJECT_NAME":"SL-8 R\/B","OBJECT_ID":"1984-043B","EPOCH":"2026-03-09T21:43:20.142336","MEAN_MOTION":13.74877855,"ECCENTRICITY":0.0016432,"INCLINATION":82.969,"RA_OF_ASC_NODE":263.0191,"ARG_OF_PERICENTER":166.1577,"MEAN_ANOMALY":306.1899,"EPHEMERIS_TYPE":0,"CLASSIFICATION_TYPE":"U","NORAD_CAT_ID":14966,"ELEMENT_SET_NO":999,"REV_AT_EPOCH":9765,"BSTAR":0.00018598376,"MEAN_MOTION_DOT":1.92e-6,"MEAN_MOTION_DDOT":0}]
